STARLINK-1461           
1 45730U 20038A   22287.15545842  .00002018  00000+0  15429-3 0  9991
2 45730  53.0530  54.5752 0001561  71.5142 288.6017 15.06404304130034
STARLINK-1465           
1 45731U 20038B   22286.63942542  .00001941  00000+0  14917-3 0  9997
2 45731  53.0553  56.8903 0001536  69.6746 290.4408 15.06399437128833
STARLINK-1466           
1 45732U 20038C   22286.76106702  .00000132  00000+0  27757-4 0  9990
2 45732  53.0563  56.3443 0001417  73.8937 286.2208 15.06388289128852
STARLINK-1467           
1 45733U 20038D   22286.65130649  .00020850  00000+0  13384-2 0  9994
2 45733  53.0547  56.2875 0001413  90.2162 269.8990 15.08446632128845
STARLINK-1468           
1 45734U 20038E   22286.72863168  .00019630  00000+0  12866-2 0  9990
2 45734  53.0554  56.2709 0001288  98.4717 261.6418 15.07715629128856
STARLINK-1471           
1 45735U 20038F   22286.65417849  .00005072  00000+0  35927-3 0  9993
2 45735  53.0557  56.8289 0000953  92.3589 267.7509 15.06385035128836
STARLINK-1472           
1 45736U 20038G   22286.67720382  .00019202  00000+0  46148-3 0  9992
2 45736  53.0632   1.1415 0002878   7.7043 352.4005 15.41369399129634
STARLINK-1474           
1 45738U 20038J   22287.17388889  .00003270  00000+0  23831-3 0  9994
2 45738  53.0545  54.4976 0001346  80.3435 279.7706 15.06405050130034
STARLINK-1475           
1 45739U 20038K   22286.65692162  .00003296  00000+0  24014-3 0  9991
2 45739  53.0574  16.8077 0001847  52.7149 307.4008 15.06388160130364
STARLINK-1479           
1 45740U 20038L   22287.04856644  .00007329  00000+0  51019-3 0  9990
2 45740  53.0551  55.0603 0001366  78.1504 281.9638 15.06414241130011
STARLINK-1480           
1 45741U 20038M   22286.48830905  .00005980  00000+0  41999-3 0  9997
2 45741  53.0536  57.5641 0001510  73.6622 286.4533 15.06401119128826
STARLINK-1481           
1 45742U 20038N   22286.48093886  .00004197  00000+0  30052-3 0  9994
2 45742  53.0552  57.5926 0001497  73.8200 286.2954 15.06397046128805
STARLINK-1483           
1 45743U 20038P   22286.63110253  .00003405  00000+0  24738-3 0  9995
2 45743  53.0546  56.8568 0001498  66.9993 293.1154 15.06399205129805
STARLINK-1500           
1 45744U 20038Q   22287.13334852  .00000216  00000+0  33375-4 0  9990
2 45744  53.0580  54.6778 0001104  52.0185 308.0904 15.06401529129831
STARLINK-1503           
1 45745U 20038R   22287.05593966  .00005497  00000+0  38757-3 0  9999
2 45745  53.0562  55.0177 0001602  77.5395 282.5773 15.06408934129824
STARLINK-1504           
1 45746U 20038S   22286.67260492  .00005097  00000+0  36084-3 0  9999
2 45746  53.0561  56.7512 0001843  59.9794 300.1378 15.06402291128837
STARLINK-1506           
1 45747U 20038T   22286.87533295  .00001806  00000+0  14010-3 0  9995
2 45747  53.0549  55.8393 0001192  66.4271 293.6843 15.06394466129794
STARLINK-1507           
1 45748U 20038U   22286.79697758  .00000098  00000+0  25454-4 0  9999
2 45748  53.0546  56.1685 0001463  68.8402 291.2743 15.06393786128856
STARLINK-1391           
1 45750U 20038W   22286.42749146  .00006372  00000+0  44629-3 0  9996
2 45750  53.0552  37.8415 0001839  53.7467 306.3691 15.06401029129091
STARLINK-1464           
1 45751U 20038X   22286.68919375  .00001779  00000+0  13834-3 0  9998
2 45751  53.0558  36.6767 0001772  59.9448 300.1717 15.06389743129132
STARLINK-1476           
1 45753U 20038Z   22287.03198062  .00002657  00000+0  19720-3 0  9998
2 45753  53.0552  35.1167 0001476  69.4727 290.6420 15.06398655130298
STARLINK-1477           
1 45754U 20038AA  22286.57124019  .00003082  00000+0  22574-3 0  9992
2 45754  53.0563  37.1915 0001454  68.6696 291.4448 15.06394240129110
STARLINK-1478           
1 45755U 20038AB  22286.58967622  .00004502  00000+0  32096-3 0  9997
2 45755  53.0569  37.1010 0001238  58.6148 301.4962 15.06392778129100
STARLINK-1484           
1 45756U 20038AC  22286.71773201  .00003311  00000+0  24106-3 0  9991
2 45756  53.0566  36.5378 0001534  62.5609 297.5536 15.06396405129128
STARLINK-1486           
1 45757U 20038AD  22287.13518682  .00006652  00000+0  46533-3 0  9998
2 45757  53.0564  34.6710 0001805  55.9278 304.1882 15.06378492130302
STARLINK-1487           
1 45758U 20038AE  22286.99511956  .00001237  00000+0  10197-3 0  9990
2 45758  53.0567  35.2904 0001881  42.3702 317.7432 15.06395337130289
STARLINK-1493           
1 45759U 20038AF  22286.57861559  .00002505  00000+0  18710-3 0  9990
2 45759  53.0565  37.1684 0001803  44.2511 315.8622 15.06388341129103
STARLINK-1494           
1 45760U 20038AG  22286.58229296  .00002895  00000+0  21320-3 0  9992
2 45760  53.0548  37.1365 0001598  60.1609 299.9538 15.06398861129115
STARLINK-1495           
1 45761U 20038AH  22287.17336478  .00067915  00000+0  38804-3 0  9999
2 45761  53.0377 218.5950 0000646 103.2083 256.9009 15.78272397132595
STARLINK-1499           
1 45762U 20038AJ  22286.58343471  .00027095  00000+0  16419-2 0  9997
2 45762  53.0557  34.6978 0001444  50.2203 309.8915 15.10406638129150
STARLINK-1502           
1 45764U 20038AL  22286.61178271  .00003997  00000+0  28701-3 0  9990
2 45764  53.0550  37.0204 0001426  59.8151 300.2979 15.06404988129124
STARLINK-1509           
1 45766U 20038AN  22287.13150309  .00002191  00000+0  16597-3 0  9997
2 45766  53.0560  34.6719 0001643  58.6341 301.4809 15.06396236130112
STARLINK-1511           
1 45767U 20038AP  22286.59335473  .00002083  00000+0  15868-3 0  9994
2 45767  53.0547  37.1001 0001764  53.9573 306.1579 15.06399159129109
STARLINK-1521           
1 45768U 20038AQ  22287.17205299  .00006409  00000+0  44866-3 0  9998
2 45768  53.0542  34.4845 0001410  68.5297 291.5843 15.06409621130125
STARLINK-1459           
1 45769U 20038AR  22286.79792091  .00002727  00000+0  20193-3 0  9993
2 45769  53.0552  56.1831 0001569  70.3280 289.7878 15.06400293128862
STARLINK-1462           
1 45770U 20038AS  22286.66798155  .00001114  00000+0  93733-4 0  9998
2 45770  53.0560  16.7732 0001742  51.3635 308.7510 15.06388698129399
STARLINK-1463           
1 45771U 20038AT  22287.12596760  .00002095  00000+0  15950-3 0  9992
2 45771  53.0562  14.7146 0001506  60.0799 300.0339 15.06398705130582
STARLINK-1470           
1 45772U 20038AU  22286.58415156  .00003323  00000+0  24196-3 0  9998
2 45772  53.0579  17.1391 0001583  56.3447 303.7693 15.06388514129390
STARLINK-1482           
1 45773U 20038AV  22286.44407646  .00003571  00000+0  25859-3 0  9991
2 45773  53.0557  17.7733 0001952  45.6446 314.4703 15.06392872129374
STARLINK-1485           
1 45774U 20038AW  22286.48094015  .00006234  00000+0  43693-3 0  9993
2 45774  53.0552  17.6100 0001687  57.5220 302.5931 15.06406660129376
STARLINK-1488           
1 45775U 20038AX  22286.61732989  .00001333  00000+0  10842-3 0  9993
2 45775  53.0554  17.0020 0001694  66.3398 293.7768 15.06378287129402
STARLINK-1489           
1 45776U 20038AY  22286.95642551  .00005152  00000+0  36443-3 0  9994
2 45776  53.0554  15.4716 0001964  43.7787 316.3357 15.06406879130562
STARLINK-1490           
1 45777U 20038AZ  22286.62100875  .00004606  00000+0  32810-3 0  9994
2 45777  53.0557  16.9786 0001788  44.3997 315.7135 15.06380077130527
STARLINK-1491           
1 45778U 20038BA  22287.19970273 -.00005345  00000+0 -34018-3 0  9990
2 45778  53.0565  14.3680 0001656  57.8526 302.2624 15.06402730130595
STARLINK-1492           
1 45779U 20038BB  22286.43899085  .00032172  00000+0  20602-2 0  9997
2 45779  53.0566  17.5115 0000889  59.8109 300.2969 15.08300321129369
STARLINK-1496           
1 45780U 20038BC  22286.47725582  .00004126  00000+0  29569-3 0  9993
2 45780  53.0553  17.6061 0001868  57.2320 302.8849 15.06405074129367
STARLINK-1497           
1 45781U 20038BD  22286.96747836  .00004565  00000+0  32512-3 0  9993
2 45781  53.0562  15.4233 0001827  49.5741 310.5407 15.06406572130374
STARLINK-1498           
1 45782U 20038BE  22286.43423353  .00023673  00000+0  15003-2 0  9997
2 45782  53.0553  17.1756 0001336  91.6342 268.4801 15.08842386129381
STARLINK-1505           
1 45783U 20038BF  22286.76475879  .00006201  00000+0  43480-3 0  9993
2 45783  53.0549  16.3298 0001865  48.6137 311.5012 15.06403292129426
STARLINK-1510           
1 45784U 20038BG  22286.53990832  .00011442  00000+0  78550-3 0  9999
2 45784  53.0562  17.3253 0002013  52.5703 307.5469 15.06414803129389
STARLINK-1512           
1 45785U 20038BH  22286.72052910  .00009556  00000+0  65944-3 0  9993
2 45785  53.0558  16.5337 0001936  49.2988 310.8169 15.06406802129418
STARLINK-1513           
1 45786U 20038BJ  22286.97116894  .00003820  00000+0  27519-3 0  9997
2 45786  53.0536  15.4002 0001661  50.2163 309.8973 15.06398512130370
STARLINK-1517           
1 45787U 20038BK  22286.58045389  .00001665  00000+0  13066-3 0  9992
2 45787  53.0552  17.1642 0001726  50.6653 309.4488 15.06396474129390
SKYSAT-C14              
1 45788U 20038BL  22286.83940011  .00043809  00000+0  52576-3 0  9992
2 45788  52.9903 109.2235 0002161 122.4778 237.6443 15.60480949133131
SKYSAT-C16              
1 45789U 20038BM  22286.93514953  .00043860  00000+0  51736-3 0  9990
2 45789  52.9910 108.4678 0006583 232.6814 127.3598 15.60911245133144
SKYSAT-C15              
1 45790U 20038BN  22286.88452708  .00042664  00000+0  50361-3 0  9999
2 45790  52.9893 108.7451 0005750 156.8947 203.2325 15.60910893133136
